[{"OBJECT_NAME":"COSMOS 2456 (730)","OBJECT_ID":"2009-070A","EPOCH":"2026-03-03T10:13:03.238752","MEAN_MOTION":2.13103384,"ECCENTRICITY":0.00063005,"INCLINATION":64.9483,"RA_OF_ASC_NODE":74.5788,"ARG_OF_PERICENTER":305.6154,"MEAN_ANOMALY":173.663,"EPHEMERIS_TYPE":0,"CLASSIFICATION_TYPE":"U","NORAD_CAT_ID":36111,"ELEMENT_SET_NO":999,"REV_AT_EPOCH":12617,"BSTAR":0,"MEAN_MOTION_DOT":1.9e-7,"MEAN_MOTION_DDOT":0},{"OBJECT_NAME":"COSMOS 2457 (733)","OBJECT_ID":"2009-070B","EPOCH":"2026-03-03T13:42:02.208096","MEAN_MOTION":2.13100826,"ECCENTRICITY":0.00021827,"INCLINATION":64.9335,"RA_OF_ASC_NODE":74.4199,"ARG_OF_PERICENTER":196.208,"MEAN_ANOMALY":162.7915,"EPHEMERIS_TYPE":0,"CLASSIFICATION_TYPE":"U","NORAD_CAT_ID":36112,"ELEMENT_SET_NO":999,"REV_AT_EPOCH":12617,"BSTAR":0,"MEAN_MOTION_DOT":1.8e-7,"MEAN_MOTION_DDOT":0},{"OBJECT_NAME":"COSMOS 2460 (732)","OBJECT_ID":"2010-007C","EPOCH":"2026-03-03T19:27:14.853312","MEAN_MOTION":2.13106025,"ECCENTRICITY":0.0001771,"INCLINATION":65.4802,"RA_OF_ASC_NODE":318.0346,"ARG_OF_PERICENTER":13.0565,"MEAN_ANOMALY":170.6086,"EPHEMERIS_TYPE":0,"CLASSIFICATION_TYPE":"U","NORAD_CAT_ID":36402,"ELEMENT_SET_NO":999,"REV_AT_EPOCH":12448,"BSTAR":0,"MEAN_MOTION_DOT":-5.0e-7,"MEAN_MOTION_DDOT":0},{"OBJECT_NAME":"GPS BIIF-1  (PRN 25)","OBJECT_ID":"2010-022A","EPOCH":"2026-03-03T22:10:50.326176","MEAN_MOTION":2.00557227,"ECCENTRICITY":0.01273545,"INCLINATION":54.289,"RA_OF_ASC_NODE":212.8003,"ARG_OF_PERICENTER":65.8755,"MEAN_ANOMALY":55.1962,"EPHEMERIS_TYPE":0,"CLASSIFICATION_TYPE":"U","NORAD_CAT_ID":36585,"ELEMENT_SET_NO":999,"REV_AT_EPOCH":11548,"BSTAR":0,"MEAN_MOTION_DOT":-6.0e-8,"MEAN_MOTION_DDOT":0},{"OBJECT_NAME":"BEIDOU-2 IGSO-1 (C06)","OBJECT_ID":"2010-036A","EPOCH":"2026-03-03T17:00:16.695648","MEAN_MOTION":1.0025256,"ECCENTRICITY":0.0054007,"INCLINATION":54.2923,"RA_OF_ASC_NODE":163.9165,"ARG_OF_PERICENTER":218.9612,"MEAN_ANOMALY":138.7891,"EPHEMERIS_TYPE":0,"CLASSIFICATION_TYPE":"U","NORAD_CAT_ID":36828,"ELEMENT_SET_NO":999,"REV_AT_EPOCH":5703,"BSTAR":0,"MEAN_MOTION_DOT":-1.47e-6,"MEAN_MOTION_DDOT":0},{"OBJECT_NAME":"BEIDOU-2 G4 (C04)","OBJECT_ID":"2010-057A","EPOCH":"2026-03-03T21:41:00.356640","MEAN_MOTION":1.00272039,"ECCENTRICITY":0.00090973,"INCLINATION":3.3855,"RA_OF_ASC_NODE":69.5514,"ARG_OF_PERICENTER":210.5609,"MEAN_ANOMALY":6.8026,"EPHEMERIS_TYPE":0,"CLASSIFICATION_TYPE":"U","NORAD_CAT_ID":37210,"ELEMENT_SET_NO":999,"REV_AT_EPOCH":5623,"BSTAR":0,"MEAN_MOTION_DOT":-1.24e-6,"MEAN_MOTION_DDOT":0},{"OBJECT_NAME":"BEIDOU-2 IGSO-2 (C07)","OBJECT_ID":"2010-068A","EPOCH":"2026-03-03T13:10:55.612992","MEAN_MOTION":1.00258892,"ECCENTRICITY":0.0047361,"INCLINATION":47.7339,"RA_OF_ASC_NODE":273.1369,"ARG_OF_PERICENTER":212.9625,"MEAN_ANOMALY":340.0691,"EPHEMERIS_TYPE":0,"CLASSIFICATION_TYPE":"U","NORAD_CAT_ID":37256,"ELEMENT_SET_NO":999,"REV_AT_EPOCH":5573,"BSTAR":0,"MEAN_MOTION_DOT":-1.75e-6,"MEAN_MOTION_DDOT":0},{"OBJECT_NAME":"BEIDOU-2 IGSO-3 (C08)","OBJECT_ID":"2011-013A","EPOCH":"2026-02-27T21:48:44.352288","MEAN_MOTION":1.00294022,"ECCENTRICITY":0.00350296,"INCLINATION":62.2642,"RA_OF_ASC_NODE":41.1818,"ARG_OF_PERICENTER":190.8154,"MEAN_ANOMALY":358.7681,"EPHEMERIS_TYPE":0,"CLASSIFICATION_TYPE":"U","NORAD_CAT_ID":37384,"ELEMENT_SET_NO":999,"REV_AT_EPOCH":5456,"BSTAR":0,"MEAN_MOTION_DOT":-1.54e-6,"MEAN_MOTION_DDOT":0},{"OBJECT_NAME":"GSAT-8 (GAGAN/PRN 127)","OBJECT_ID":"2011-022A","EPOCH":"2026-03-03T22:53:38.393376","MEAN_MOTION":1.00272086,"ECCENTRICITY":0.00073941,"INCLINATION":1.8592,"RA_OF_ASC_NODE":83.1638,"ARG_OF_PERICENTER":214.8254,"MEAN_ANOMALY":262.1732,"EPHEMERIS_TYPE":0,"CLASSIFICATION_TYPE":"U","NORAD_CAT_ID":37605,"ELEMENT_SET_NO":999,"REV_AT_EPOCH":5216,"BSTAR":0,"MEAN_MOTION_DOT":7.2e-7,"MEAN_MOTION_DDOT":0},{"OBJECT_NAME":"BEIDOU-2 IGSO-4 (C09)","OBJECT_ID":"2011-038A","EPOCH":"2026-03-03T17:13:01.395264","MEAN_MOTION":1.00265642,"ECCENTRICITY":0.01543744,"INCLINATION":54.5893,"RA_OF_ASC_NODE":166.6259,"ARG_OF_PERICENTER":230.9657,"MEAN_ANOMALY":116.5987,"EPHEMERIS_TYPE":0,"CLASSIFICATION_TYPE":"U","NORAD_CAT_ID":37763,"ELEMENT_SET_NO":999,"REV_AT_EPOCH":5358,"BSTAR":0,"MEAN_MOTION_DOT":-1.14e-6,"MEAN_MOTION_DDOT":0},{"OBJECT_NAME":"GSAT0101 (GALILEO-PFM)","OBJECT_ID":"2011-060A","EPOCH":"2026-02-22T11:08:37.810464","MEAN_MOTION":1.70475478,"ECCENTRICITY":0.00039756,"INCLINATION":57.0318,"RA_OF_ASC_NODE":344.8758,"ARG_OF_PERICENTER":357.0591,"MEAN_ANOMALY":2.9533,"EPHEMERIS_TYPE":0,"CLASSIFICATION_TYPE":"U","NORAD_CAT_ID":37846,"ELEMENT_SET_NO":999,"REV_AT_EPOCH":8916,"BSTAR":0,"MEAN_MOTION_DOT":-8.2e-7,"MEAN_MOTION_DDOT":0},{"OBJECT_NAME":"GSAT0102 (GALILEO-FM2)","OBJECT_ID":"2011-060B","EPOCH":"2026-03-01T01:30:59.316192","MEAN_MOTION":1.70475778,"ECCENTRICITY":0.00054225,"INCLINATION":57.0301,"RA_OF_ASC_NODE":344.6971,"ARG_OF_PERICENTER":341.2092,"MEAN_ANOMALY":154.1953,"EPHEMERIS_TYPE":0,"CLASSIFICATION_TYPE":"U","NORAD_CAT_ID":37847,"ELEMENT_SET_NO":999,"REV_AT_EPOCH":8928,"BSTAR":0,"MEAN_MOTION_DOT":-1.06e-6,"MEAN_MOTION_DDOT":0},{"OBJECT_NAME":"COSMOS 2476 (744)","OBJECT_ID":"2011-064A","EPOCH":"2026-03-02T01:58:37.937856","MEAN_MOTION":2.13103599,"ECCENTRICITY":0.00252054,"INCLINATION":65.2077,"RA_OF_ASC_NODE":76.4865,"ARG_OF_PERICENTER":241.1677,"MEAN_ANOMALY":195.882,"EPHEMERIS_TYPE":0,"CLASSIFICATION_TYPE":"U","NORAD_CAT_ID":37867,"ELEMENT_SET_NO":999,"REV_AT_EPOCH":11148,"BSTAR":0,"MEAN_MOTION_DOT":3.4e-7,"MEAN_MOTION_DDOT":0},{"OBJECT_NAME":"COSMOS 2477 (745)","OBJECT_ID":"2011-064B","EPOCH":"2026-03-03T06:09:12.736224","MEAN_MOTION":2.13102695,"ECCENTRICITY":0.00222416,"INCLINATION":65.2151,"RA_OF_ASC_NODE":76.5253,"ARG_OF_PERICENTER":242.8811,"MEAN_ANOMALY":195.4983,"EPHEMERIS_TYPE":0,"CLASSIFICATION_TYPE":"U","NORAD_CAT_ID":37868,"ELEMENT_SET_NO":999,"REV_AT_EPOCH":11150,"BSTAR":0,"MEAN_MOTION_DOT":2.4e-7,"MEAN_MOTION_DDOT":0},{"OBJECT_NAME":"COSMOS 2475 (743)","OBJECT_ID":"2011-064C","EPOCH":"2026-03-03T07:50:06.899136","MEAN_MOTION":2.13101445,"ECCENTRICITY":0.00280971,"INCLINATION":65.222,"RA_OF_ASC_NODE":76.5435,"ARG_OF_PERICENTER":254.3538,"MEAN_ANOMALY":193.3549,"EPHEMERIS_TYPE":0,"CLASSIFICATION_TYPE":"U","NORAD_CAT_ID":37869,"ELEMENT_SET_NO":999,"REV_AT_EPOCH":11151,"BSTAR":0,"MEAN_MOTION_DOT":2.4e-7,"MEAN_MOTION_DDOT":0},{"OBJECT_NAME":"BEIDOU-2 IGSO-5 (C10)","OBJECT_ID":"2011-073A","EPOCH":"2026-03-03T13:21:24.912576","MEAN_MOTION":1.00272725,"ECCENTRICITY":0.01085745,"INCLINATION":47.8694,"RA_OF_ASC_NODE":272.8493,"ARG_OF_PERICENTER":221.0989,"MEAN_ANOMALY":322.891,"EPHEMERIS_TYPE":0,"CLASSIFICATION_TYPE":"U","NORAD_CAT_ID":37948,"ELEMENT_SET_NO":999,"REV_AT_EPOCH":5207,"BSTAR":0,"MEAN_MOTION_DOT":-1.5e-6,"MEAN_MOTION_DDOT":0},{"OBJECT_NAME":"LUCH 5A (SDCM/PRN 140)","OBJECT_ID":"2011-074B","EPOCH":"2026-03-03T20:00:16.974720","MEAN_MOTION":1.00275356,"ECCENTRICITY":0.00040051,"INCLINATION":8.4858,"RA_OF_ASC_NODE":75.3546,"ARG_OF_PERICENTER":243.8626,"MEAN_ANOMALY":309.5287,"EPHEMERIS_TYPE":0,"CLASSIFICATION_TYPE":"U","NORAD_CAT_ID":37951,"ELEMENT_SET_NO":999,"REV_AT_EPOCH":5199,"BSTAR":0,"MEAN_MOTION_DOT":-5.7e-7,"MEAN_MOTION_DDOT":0}]
